{"type": "FeatureCollection", "features": [ {"type": "Feature", "properties": {"norad_id": 37532, "name": "COSMOS 2251 DEB", "group": "cosmos-2251-debris", "lat": 48.73028048501711, "lon": -139.4533979677222, "alt_km": 749.8191219256141, "timestamp": "2025-12-20T09:36:02.046948+00:00", "meta": {"OBJECT_NAME": "COSMOS 2251 DEB", "OBJECT_ID": "1993-036BNM", "EPOCH": "2025-12-14T09:22:45.259968", "MEAN_MOTION": 14.42410404, "ECCENTRICITY": 0.00160101, "INCLINATION": 74.0496, "RA_OF_ASC_NODE": 212.6604, "ARG_OF_PERICENTER": 313.2255, "MEAN_ANOMALY": 226.6563, "EPHEMERIS_TYPE": 0, "CLASSIFICATION_TYPE": "U", "NORAD_CAT_ID": 37532, "ELEMENT_SET_NO": 999, "REV_AT_EPOCH": 84939, "BSTAR": 0.00027461522, "MEAN_MOTION_DOT": 8.83e-06, "MEAN_MOTION_DDOT": 0}, "tle": {"line1": "1 37532U 93036BNM 25348.39080162  .00000883  00000+0  27462-3 0  9994", "line2": "2 37532  74.0496 212.6604 0016010 313.2255 226.6563 14.42410404849399"}}, "geometry": {"type": "Point", "coordinates": [-139.4533979677222, 48.73028048501711]}}, {"type": "Feature", "properties": {"norad_id": 37533, "name": "COSMOS 2251 DEB", "group": "cosmos-2251-debris", "lat": 29.61020640748067, "lon": -172.35510691678388, "alt_km": 955.3446588573561, "timestamp": "2025-12-20T09:36:02.046958+00:00", "meta": {"OBJECT_NAME": "COSMOS 2251 DEB", "OBJECT_ID": "1993-036BNN", "EPOCH": "2025-12-17T06:38:38.162976", "MEAN_MOTION": 14.12190824, "ECCENTRICITY": 0.0157786, "INCLINATION": 74.0692, "RA_OF_ASC_NODE": 183.8069, "ARG_OF_PERICENTER": 239.4795, "MEAN_ANOMALY": 119.0691, "EPHEMERIS_TYPE": 0, "CLASSIFICATION_TYPE": "U", "NORAD_CAT_ID": 37533, "ELEMENT_SET_NO": 999, "REV_AT_EPOCH": 62985, "BSTAR": 0.0010470743, "MEAN_MOTION_DOT": 2.138e-05, "MEAN_MOTION_DDOT": 0}, "tle": {"line1": "1 37533U 93036BNN 25351.27683059  .00002138  00000+0  10471-2 0  9996", "line2": "2 37533  74.0692 183.8069 0157786 239.4795 119.0691 14.12190824629858"}}, "geometry": {"type": "Point", "coordinates": [-172.35510691678388, 29.61020640748067]}}, {"type": "Feature", "properties": {"norad_id": 37535, "name": "COSMOS 2251 DEB", "group": "cosmos-2251-debris", "lat": 30.96516639513316, "lon": -130.9900856358762, "alt_km": 683.3213843431686, "timestamp": "2025-12-20T09:36:02.046969+00:00", "meta": {"OBJECT_NAME": "COSMOS 2251 DEB", "OBJECT_ID": "1993-036BNQ", "EPOCH": "2025-12-19T15:30:43.235136", "MEAN_MOTION": 14.58499467, "ECCENTRICITY": 0.0027409, "INCLINATION": 74.024, "RA_OF_ASC_NODE": 60.3433, "ARG_OF_PERICENTER": 198.557, "MEAN_ANOMALY": 313.5255, "EPHEMERIS_TYPE": 0, "CLASSIFICATION_TYPE": "U", "NORAD_CAT_ID": 37535, "ELEMENT_SET_NO": 999, "REV_AT_EPOCH": 85425, "BSTAR": 0.0004624, "MEAN_MOTION_DOT": 2.129e-05, "MEAN_MOTION_DDOT": 0}, "tle": {"line1": "1 37535U 93036BNQ 25353.64633374  .00002129  00000+0  46240-3 0  9990", "line2": "2 37535  74.0240  60.3433 0027409 198.5570 313.5255 14.58499467854253"}}, "geometry": {"type": "Point", "coordinates": [-130.9900856358762, 30.96516639513316]}}, {"type": "Feature", "properties": {"norad_id": 37537, "name": "COSMOS 2251 DEB", "group": "cosmos-2251-debris", "lat": 55.38243049792199, "lon": 46.468819159102964, "alt_km": 762.0954667729784, "timestamp": "2025-12-20T09:36:02.046979+00:00", "meta": {"OBJECT_NAME": "COSMOS 2251 DEB", "OBJECT_ID": "1993-036BNS", "EPOCH": "2025-12-18T00:15:20.074464", "MEAN_MOTION": 14.37498757, "ECCENTRICITY": 0.00505516, "INCLINATION": 74.0117, "RA_OF_ASC_NODE": 255.4114, "ARG_OF_PERICENTER": 34.2207, "MEAN_ANOMALY": 326.2186, "EPHEMERIS_TYPE": 0, "CLASSIFICATION_TYPE": "U", "NORAD_CAT_ID": 37537, "ELEMENT_SET_NO": 999, "REV_AT_EPOCH": 85109, "BSTAR": 0.00017725401, "MEAN_MOTION_DOT": 5.12e-06, "MEAN_MOTION_DDOT": 0}, "tle": {"line1": "1 37537U 93036BNS 25352.01064901  .00000512  00000+0  17725-3 0  9996", "line2": "2 37537  74.0117 255.4114 0050551  34.2207 326.2186 14.37498757851099"}}, "geometry": {"type": "Point", "coordinates": [46.468819159102964, 55.38243049792199]}}, {"type": "Feature", "properties": {"norad_id": 37546, "name": "COSMOS 2251 DEB", "group": "cosmos-2251-debris", "lat": -48.935411477170824, "lon": 63.689842072568915, "alt_km": 635.9753162135057, "timestamp": "2025-12-20T09:36:02.046989+00:00", "meta": {"OBJECT_NAME": "COSMOS 2251 DEB", "OBJECT_ID": "1993-036BPB", "EPOCH": "2025-12-19T06:16:07.383648", "MEAN_MOTION": 14.80755456, "ECCENTRICITY": 0.0005308, "INCLINATION": 74.0228, "RA_OF_ASC_NODE": 85.1349, "ARG_OF_PERICENTER": 85.4439, "MEAN_ANOMALY": 274.7344, "EPHEMERIS_TYPE": 0, "CLASSIFICATION_TYPE": "U", "NORAD_CAT_ID": 37546, "ELEMENT_SET_NO": 999, "REV_AT_EPOCH": 65984, "BSTAR": 0.001677, "MEAN_MOTION_DOT": 0.00012912, "MEAN_MOTION_DDOT": 0}, "tle": {"line1": "1 37546U 93036BPB 25353.26119657  .00012912  00000+0  16770-2 0  9998", "line2": "2 37546  74.0228  85.1349 0005308  85.4439 274.7344 14.80755456659847"}}, "geometry": {"type": "Point", "coordinates": [63.689842072568915, -48.935411477170824]}}, {"type": "Feature", "properties": {"norad_id": 37959, "name": "COSMOS 2251 DEB", "group": "cosmos-2251-debris", "lat": -59.0707797969072, "lon": -109.0638445782976, "alt_km": 685.100834921187, "timestamp": "2025-12-20T09:36:02.046999+00:00", "meta": {"OBJECT_NAME": "COSMOS 2251 DEB", "OBJECT_ID": "1993-036BPJ", "EPOCH": "2025-12-19T21:47:02.000256", "MEAN_MOTION": 14.5818564, "ECCENTRICITY": 0.0057391, "INCLINATION": 74.0108, "RA_OF_ASC_NODE": 43.2841, "ARG_OF_PERICENTER": 184.5284, "MEAN_ANOMALY": 354.4409, "EPHEMERIS_TYPE": 0, "CLASSIFICATION_TYPE": "U", "NORAD_CAT_ID": 37959, "ELEMENT_SET_NO": 999, "REV_AT_EPOCH": 80231, "BSTAR": 0.00039942, "MEAN_MOTION_DOT": 1.854e-05, "MEAN_MOTION_DDOT": 0}, "tle": {"line1": "1 37959U 93036BPJ 25353.90766204  .00001854  00000+0  39942-3 0  9993", "line2": "2 37959  74.0108  43.2841 0057391 184.5284 354.4409 14.58185640802319"}}, "geometry": {"type": "Point", "coordinates": [-109.0638445782976, -59.0707797969072]}}, {"type": "Feature", "properties": {"norad_id": 37960, "name": "COSMOS 2251 DEB", "group": "cosmos-2251-debris", "lat": 24.801122317921426, "lon": -14.120218795603733, "alt_km": 718.7508953139104, "timestamp": "2025-12-20T09:36:02.047009+00:00", "meta": {"OBJECT_NAME": "COSMOS 2251 DEB", "OBJECT_ID": "1993-036BPK", "EPOCH": "2025-12-16T19:35:27.740256", "MEAN_MOTION": 14.07867991, "ECCENTRICITY": 0.02485393, "INCLINATION": 74.059, "RA_OF_ASC_NODE": 179.7478, "ARG_OF_PERICENTER": 197.3915, "MEAN_ANOMALY": 161.86, "EPHEMERIS_TYPE": 0, "CLASSIFICATION_TYPE": "U", "NORAD_CAT_ID": 37960, "ELEMENT_SET_NO": 999, "REV_AT_EPOCH": 77463, "BSTAR": 0.00064570376, "MEAN_MOTION_DOT": 1.428e-05, "MEAN_MOTION_DDOT": 0}, "tle": {"line1": "1 37960U 93036BPK 25350.81629329  .00001428  00000+0  64570-3 0  9990", "line2": "2 37960  74.0590 179.7478 0248539 197.3915 161.8600 14.07867991774632"}}, "geometry": {"type": "Point", "coordinates": [-14.120218795603733, 24.801122317921426]}}, {"type": "Feature", "properties": {"norad_id": 37961, "name": "COSMOS 2251 DEB", "group": "cosmos-2251-debris", "lat": -53.34744367866361, "lon": 99.9261646128333, "alt_km": 711.9632513517572, "timestamp": "2025-12-20T09:36:02.047022+00:00", "meta": {"OBJECT_NAME": "COSMOS 2251 DEB", "OBJECT_ID": "1993-036BPL", "EPOCH": "2025-12-13T03:18:27.462240", "MEAN_MOTION": 14.57979799, "ECCENTRICITY": 0.00406759, "INCLINATION": 74.0407, "RA_OF_ASC_NODE": 136.3488, "ARG_OF_PERICENTER": 216.8805, "MEAN_ANOMALY": 142.9561, "EPHEMERIS_TYPE": 0, "CLASSIFICATION_TYPE": "U", "NORAD_CAT_ID": 37961, "ELEMENT_SET_NO": 999, "REV_AT_EPOCH": 80071, "BSTAR": 0.001729191, "MEAN_MOTION_DOT": 8.011e-05, "MEAN_MOTION_DDOT": 0}, "tle": {"line1": "1 37961U 93036BPL 25347.13781785  .00008011  00000+0  17292-2 0  9990", "line2": "2 37961  74.0407 136.3488 0040675 216.8805 142.9561 14.57979799800716"}}, "geometry": {"type": "Point", "coordinates": [99.9261646128333, -53.34744367866361]}}, {"type": "Feature", "properties": {"norad_id": 37966, "name": "COSMOS 2251 DEB", "group": "cosmos-2251-debris", "lat": 47.97937587522947, "lon": 16.007866424028308, "alt_km": 514.589146093811, "timestamp": "2025-12-20T09:36:02.047032+00:00", "meta": {"OBJECT_NAME": "COSMOS 2251 DEB", "OBJECT_ID": "1993-036BPR", "EPOCH": "2025-12-13T08:51:38.453184", "MEAN_MOTION": 15.12754556, "ECCENTRICITY": 0.00088035, "INCLINATION": 73.9781, "RA_OF_ASC_NODE": 229.2381, "ARG_OF_PERICENTER": 105.8293, "MEAN_ANOMALY": 254.3871, "EPHEMERIS_TYPE": 0, "CLASSIFICATION_TYPE": "U", "NORAD_CAT_ID": 37966, "ELEMENT_SET_NO": 999, "REV_AT_EPOCH": 85352, "BSTAR": 0.0051051315, "MEAN_MOTION_DOT": 0.00090719, "MEAN_MOTION_DDOT": 0}, "tle": {"line1": "1 37966U 93036BPR 25347.36919506  .00090719  00000+0  51051-2 0  9991", "line2": "2 37966  73.9781 229.2381 0008803 105.8293 254.3871 15.12754556853526"}}, "geometry": {"type": "Point", "coordinates": [16.007866424028308, 47.97937587522947]}}, {"type": "Feature", "properties": {"norad_id": 37967, "name": "COSMOS 2251 DEB", "group": "cosmos-2251-debris", "lat": -44.810771974328716, "lon": 106.64848181720146, "alt_km": 696.4985301097358, "timestamp": "2025-12-20T09:36:02.047042+00:00", "meta": {"OBJECT_NAME": "COSMOS 2251 DEB", "OBJECT_ID": "1993-036BPS", "EPOCH": "2025-12-18T02:49:02.762976", "MEAN_MOTION": 14.40572571, "ECCENTRICITY": 0.01510178, "INCLINATION": 74.0151, "RA_OF_ASC_NODE": 127.4202, "ARG_OF_PERICENTER": 265.0646, "MEAN_ANOMALY": 93.3255, "EPHEMERIS_TYPE": 0, "CLASSIFICATION_TYPE": "U", "NORAD_CAT_ID": 37967, "ELEMENT_SET_NO": 999, "REV_AT_EPOCH": 64813, "BSTAR": 0.0013319552, "MEAN_MOTION_DOT": 4.831e-05, "MEAN_MOTION_DDOT": 0}, "tle": {"line1": "1 37967U 93036BPS 25352.11739309  .00004831  00000+0  13320-2 0  9999", "line2": "2 37967  74.0151 127.4202 0151017 265.0646  93.3255 14.40572571648139"}}, "geometry": {"type": "Point", "coordinates": [106.64848181720146, -44.810771974328716]}}]}